#aV2015  3 25  0  0  0.00000000     288 DD+AD WGS84 FIT  NGA
## 1837 259200.00000000   300.00000000 57106 0.0000000000000
+   31     1  2  3  4  5  6  7  8  9 10 11 12 13 14 15 16 17
+         18 19 20 21 22 23 24 25 27 28 29 30 31 32  0  0  0
+          0  0  0  0  0  0  0  0  0  0  0  0  0  0  0  0  0
+          0  0  0  0  0  0  0  0  0  0  0  0  0  0  0  0  0
+          0  0  0  0  0  0  0  0  0  0  0  0  0  0  0  0  0
++         2  2  2  2  2  2  2  2  2  2  2  2  2  2  2  2  2
++         2  2  2  2  2  2  2  2  2  2  2  2  2  2  0  0  0
++         0  0  0  0  0  0  0  0  0  0  0  0  0  0  0  0  0
++         0  0  0  0  0  0  0  0  0  0  0  0  0  0  0  0  0
++         0  0  0  0  0  0  0  0  0  0  0  0  0  0  0  0  0
%c cc cc ccc ccc cccc cccc cccc cccc ccccc ccccc ccccc ccccc
%c cc cc ccc ccc cccc cccc cccc cccc ccccc ccccc ccccc ccccc
%f  0.0000000  0.000000000  0.00000000000  0.000000000000000
%f  0.0000000  0.000000000  0.00000000000  0.000000000000000
%i    0    0    0    0      0      0      0      0         0
%i    0    0    0    0      0      0      0      0         0
/*      NGA, ST. LOUIS,MO.                                  
/*   EPHEMERIS COMPUTED FROM  1 DAYS OF DATA                
/*   EPOCHA SMOOTHER                                       
/* CCCCCCCCCCCCCCCCCCCCCCCCCCCCCCCCCCCCCCCCCCCCCCCCCCCCCCCCC
*  2015  3 25 18 50  0.00000000
P  1 -22763.013865 -13724.005345  -2095.059695     -7.553439                    
V  1   3512.993647  -1100.622761 -31515.545207      0.004363                    
P  2   5756.219956  18200.339770  19007.612058    555.743840                    
V  2 -21551.305186  -8966.391872  14941.178675      0.023117                    
P  3 -13304.938324 -14144.591166  18111.043291    270.590735                    
V  3    614.608371 -23045.060125 -17596.870731      0.159280                    
P  4 -16834.780742 -17630.990994 -11176.976148     -9.725037                    
V  4  13424.484702   3735.358563 -26615.012690     -0.008203                    
P  5   3339.072422  26103.191486  -2853.101450   -262.256354                    
V  5  -3197.924872   3747.535298  31282.941483      0.048975                    
P  6 -10375.596628  11546.228452  21550.194925    118.275725                    
V  6 -24092.288063 -12979.505897  -4655.945851      0.103080                    
P  7 -23985.276623  -5003.647760 -10600.046054    450.436960                    
V  7 -10836.168972  -8231.929370  27789.266798      0.028887                    
P  8  -2342.654089 -17634.902898  20130.003433     18.829320                    
V  8  20559.008437  13938.905306  14151.256160      0.003009                    
P  9 -23166.984747   4747.636873  12095.007437   -121.873801                    
V  9  11639.355474 -10333.624564  26312.926486     -0.093228                    
P 10  -9940.394573  19358.288192  14550.935827   -168.481184                    
V 10  -3539.643749 -19256.340650  23029.239574     -0.013834                    
P 11 -20947.732986 -12289.365817 -11435.180565   -566.818949                    
V 11  14291.334739  -1901.242886 -25166.797839     -0.027047                    
P 12  10849.935936  17715.133823  16593.406540    279.496177                    
V 12  -1204.360001  21084.320590 -21388.320032      0.030447                    
P 13  -2125.379745  16705.773178 -20719.735834    -99.827060                    
V 13 -23575.194707  10740.364927  11040.190540     -0.033629                    
P 14  20395.640852 -15776.224048   6259.950891     75.766808                    
V 14   7996.326139  -1315.505022 -30653.979751     -0.027388                    
P 15  11757.275251  10964.856105 -21256.559679   -239.753706                    
V 15 -21812.384338  15681.776474  -3674.530520     -0.022137                    
P 16  -1355.426481 -26162.567349  -2916.636620   -144.828817                    
V 16   2253.445353  -3602.282081  32367.268440      0.035025                    
P 17 -21090.505520  15465.034505   4223.785155   -162.937496                    
V 17  -5640.743380    269.906891 -31529.477167     -0.019772                    
P 18  15010.483821  -6411.695576 -20425.071040    388.989615                    
V 18   2692.542163  27122.685869  -6692.225661      0.028261                    
P 19  -7107.000976 -13357.569875 -22009.186583   -505.158748                    
V 19  24566.605944 -12339.903830      6.654737     -0.013002                    
P 20  -6625.999169  22539.094154  12167.855245    303.428096                    
V 20  -5051.999057 -15345.469303  25394.554492      0.040204                    
P 21  23112.449217   1137.429646 -12669.643151   -429.997376                    
V 21  14004.545349  10273.410372  24729.762556     -0.038472                    
P 22  10460.629841 -18757.816308 -15289.072588    332.487135                    
V 22   4112.817449  19788.822568 -21329.471253      0.041095                    
P 23 -18444.101060  -4412.544075  18899.061164    -97.504755                    
V 23  19293.234927 -13665.160583  15323.094257     -0.025516                    
P 24  21530.466934  14857.781533  -5061.716770    -45.567821                    
V 24  -6957.537351   -334.424419 -30637.604311     -0.006202                    
P 25  14760.108510   4003.445008  21646.523206    -13.940551                    
V 25    864.298705  27609.160869  -5511.406799     -0.032479                    
P 27   3999.371736 -18119.692864 -18973.500237     60.383789                    
V 27  21023.558541 -11842.623680  15851.999838      0.026578                    
P 28 -12252.650207  14353.271381 -18032.498000    428.421350                    
V 28   -664.512259 -24172.740776 -18259.292757      0.025203                    
P 29  21985.362754   -736.507007  14880.116460    600.220405                    
V 29 -15516.485802  10834.653394  23556.290354      0.024273                    
P 30 -18782.091841   3648.666870 -18455.549027    -77.311216                    
V 30 -19069.656476 -13658.376740  16662.877032      0.030107                    
P 31   7716.711949 -12813.508241  22083.554195    320.275638                    
V 31  24158.087997  13494.104914   -283.864915     -0.009491                    
P 32  -4401.322905 -25386.292997   7518.136296   -192.433146                    
V 32   2972.632239  -9325.404703 -29171.117055      0.094327                    
EOF
